{
    "links": {
        "self": "http://www.neowsapp.com/rest/v1/neo/3713946?api_key=iIulBulltgU6a56xZRHN4H3l9WmuAYTsLGpBGhQ2"
    },
    "id": "3713946",
    "neo_reference_id": "3713946",
    "name": "(2015 FA34)",
    "designation": "2015 FA34",
    "nasa_jpl_url": "http://ssd.jpl.nasa.gov/sbdb.cgi?sstr=3713946",
    "absolute_magnitude_h": 23.3,
    "estimated_diameter": {
        "kilometers": {
            "estimated_diameter_min": 0.058150704,
            "estimated_diameter_max": 0.130028927
        },
        "meters": {
            "estimated_diameter_min": 58.1507039646,
            "estimated_diameter_max": 130.0289270043
        },
        "miles": {
            "estimated_diameter_min": 0.0361331611,
            "estimated_diameter_max": 0.0807962044
        },
        "feet": {
            "estimated_diameter_min": 190.7831555951,
            "estimated_diameter_max": 426.6041048727
        }
    },
    "is_potentially_hazardous_asteroid": false,
    "close_approach_data": [
        {
            "close_approach_date": "2014-09-27",
            "close_approach_date_full": "2014-Sep-27 10:10",
            "epoch_date_close_approach": 1411812600000,
            "relative_velocity": {
                "kilometers_per_second": "16.6302538992",
                "kilometers_per_hour": "59868.9140372179",
                "miles_per_hour": "37200.2149471813"
            },
            "miss_distance": {
                "astronomical": "0.2189455888",
                "lunar": "85.1698340432",
                "kilometers": "32753793.730375856",
                "miles": "20352263.6770485728"
            },
            "orbiting_body": "Earth"
        },
        {
            "close_approach_date": "2015-03-19",
            "close_approach_date_full": "2015-Mar-19 23:27",
            "epoch_date_close_approach": 1426807620000,
            "relative_velocity": {
                "kilometers_per_second": "18.059555796",
                "kilometers_per_hour": "65014.4008654243",
                "miles_per_hour": "40397.4203599632"
            },
            "miss_distance": {
                "astronomical": "0.0827583355",
                "lunar": "32.1929925095",
                "kilometers": "12380470.715545385",
                "miles": "7692867.779620913"
            },
            "orbiting_body": "Earth"
        }
    ],
    "orbital_data": {
        "orbit_id": "5",
        "orbit_determination_date": "2017-04-06 08:34:59",
        "first_observation_date": "2015-03-20",
        "last_observation_date": "2015-03-28",
        "data_arc_in_days": 8,
        "observations_used": 19,
        "orbit_uncertainty": "8",
        "minimum_orbit_intersection": ".0631588",
        "jupiter_tisserand_invariant": "5.188",
        "epoch_osculation": "2457102.5",
        "eccentricity": ".1856538631079449",
        "semi_major_axis": "1.181461142949049",
        "inclination": "33.12412277470968",
        "ascending_node_longitude": "358.889760056531",
        "orbital_period": "469.0591269942609",
        "perihelion_distance": ".9621183176486298",
        "perihelion_argument": "113.8260627902107",
        "aphelion_distance": "1.400803968249468",
        "perihelion_time": "2457042.840578891815",
        "mean_anomaly": "45.78823939867475",
        "mean_motion": ".7674938601171376",
        "equinox": "J2000",
        "orbit_class": {
            "orbit_class_type": "APO",
            "orbit_class_description": "Near-Earth asteroid orbits which cross the Earth’s orbit similar to that of 1862 Apollo",
            "orbit_class_range": "a (semi-major axis) > 1.0 AU; q (perihelion) < 1.017 AU"
        }
    },
    "is_sentry_object": false
}